QIANFAN-57              
1 62787U 25016C   25256.24416698  .00000055  00000+0  66458-4 0  9996
2 62787  88.9784 112.5447 0002585  71.0372 289.1059 13.50964624 34988
QIANFAN-58              
1 62788U 25016D   25256.21531618  .00000061  00000+0  76011-4 0  9997
2 62788  88.9753 112.4073 0012096 242.9148 117.0770 13.50971222 35024
QIANFAN-59              
1 62789U 25016E   25254.74635696  .00000063  00000+0  79798-4 0  9992
2 62789  88.9780 112.6080 0012966 251.6290 108.3452 13.50967722 34823
QIANFAN-60              
1 62790U 25016F   25256.14497628  .00000071  00000+0  89379-4 0  9996
2 62790  88.9753 112.4617 0013977 244.5846 115.3860 13.51900939 34997
QIANFAN-61              
1 62791U 25016G   25256.23172323  .00000066  00000+0  83217-4 0  9998
2 62791  88.9825 112.5478 0012944 242.5662 117.4173 13.50970826 35027
QIANFAN-62              
1 62792U 25016H   25256.23581882  .00000057  00000+0  70155-4 0  9990
2 62792  88.9772 112.4647 0014322 243.2176 116.7510 13.50964827 35016
QIANFAN-63              
1 62793U 25016J   25256.25052255  .00000065  00000+0  83761-4 0  9996
2 62793  88.9778 112.4063 0014068 249.6884 110.2755 13.49731232 35052
QIANFAN-64              
1 62794U 25016K   25254.75862198  .00000067  00000+0  85549-4 0  9993
2 62794  88.9768 112.5521 0011941 245.7570 114.2334 13.50964331 34841
